ONEWEB-0422             
1 51626U 22012E   25255.22507683  .00000012  00000+0 -25287-5 0  9991
2 51626  87.9046  61.1368 0001154  73.2417 286.8841 13.17647779177202
ONEWEB-0423             
1 51627U 22012F   25255.21832325 -.00000005  00000+0 -46737-4 0  9990
2 51627  87.9047  61.1470 0001705  88.2133 271.9193 13.17650682177090
ONEWEB-0425             
1 51628U 22012G   25255.54811109  .00000368  00000+0  10167-2 0  9990
2 51628  87.8737  91.6271 0001996  82.5336 277.6018 13.10369213172967
ONEWEB-0428             
1 51629U 22012H   25255.52818971  .00000462  00000+0  12878-2 0  9999
2 51629  87.8739  91.6527 0001494  82.1552 277.9745 13.10374456172924
ONEWEB-0431             
1 51630U 22012J   25255.49817654 -.00000666  00000+0 -19444-2 0  9998
2 51630  87.8746  91.6308 0001232 106.6793 253.4470 13.10375072172974
ONEWEB-0434             
1 51631U 22012K   25255.55143477  .00000199  00000+0  53416-3 0  9998
2 51631  87.8741  91.6618 0002295  79.9527 280.1859 13.10369735172967
ONEWEB-0435             
1 51632U 22012L   25255.55972330 -.00001269  00000+0 -36715-2 0  9990
2 51632  87.8716  91.6532 0001824 101.6520 258.4812 13.10365033172951
ONEWEB-0436             
1 51633U 22012M   25255.20988528 -.00000051  00000+0 -16488-3 0  9993
2 51633  87.9036  61.1296 0001474  91.2584 268.8717 13.17650214177074
ONEWEB-0438             
1 51634U 22012N   25254.55048165  .00000438  00000+0  12176-2 0  9991
2 51634  87.8739  91.8543 0001841  84.3211 275.8126 13.10369261172852
ONEWEB-0439             
1 51635U 22012P   25255.54645001  .00000398  00000+0  11036-2 0  9993
2 51635  87.8737  91.6437 0001647  83.0881 277.0434 13.10369228172965
ONEWEB-0442             
1 51636U 22012Q   25255.20231321 -.00000021  00000+0 -87064-4 0  9994
2 51636  87.9036  61.1849 0002366  94.8459 265.2942 13.17648552177064
ONEWEB-0443             
1 51637U 22012R   25254.91796552  .00000096  00000+0  21369-3 0  9999
2 51637  87.9029  61.2493 0001893  82.0633 278.0714 13.17649705177071
ONEWEB-0444             
1 51638U 22012S   25254.62021015  .00000536  00000+0  14997-2 0  9990
2 51638  87.8738  91.8288 0001609  80.9853 279.1456 13.10372047172856
ONEWEB-0445             
1 51639U 22012T   25255.55806809 -.00003688  00000+0 -10602-1 0  9997
2 51639  87.8744  91.5951 0001659  86.4476 273.6841 13.10387725172985
ONEWEB-0446             
1 51640U 22012U   25254.92397427  .00000668  00000+0  18777-2 0  9995
2 51640  87.8740  91.7837 0001695  93.7012 266.4309 13.10371710172880
ONEWEB-0448             
1 51641U 22012V   25255.53981317  .00000617  00000+0  17306-2 0  9992
2 51641  87.8740  91.6603 0001635  82.5755 277.5558 13.10372979172938
ONEWEB-0449             
1 51642U 22012W   25255.23936860  .00000503  00000+0  14045-2 0  9994
2 51642  87.8734  91.6913 0002117  80.7249 279.4118 13.10371432172903
