[{"OBJECT_NAME":"ONEWEB-0422","OBJECT_ID":"2022-012E","EPOCH":"2025-09-12T05:24:06.638112","MEAN_MOTION":13.17647779,"ECCENTRICITY":0.00011545,"INCLINATION":87.9046,"RA_OF_ASC_NODE":61.1368,"ARG_OF_PERICENTER":73.2417,"MEAN_ANOMALY":286.8841,"EPHEMERIS_TYPE":0,"CLASSIFICATION_TYPE":"U","NORAD_CAT_ID":51626,"ELEMENT_SET_NO":999,"REV_AT_EPOCH":17720,"BSTAR":-2.528746e-6,"MEAN_MOTION_DOT":1.2e-7,"MEAN_MOTION_DDOT":0},{"OBJECT_NAME":"ONEWEB-0423","OBJECT_ID":"2022-012F","EPOCH":"2025-09-12T05:14:23.128800","MEAN_MOTION":13.17650682,"ECCENTRICITY":0.00017051,"INCLINATION":87.9047,"RA_OF_ASC_NODE":61.147,"ARG_OF_PERICENTER":88.2133,"MEAN_ANOMALY":271.9193,"EPHEMERIS_TYPE":0,"CLASSIFICATION_TYPE":"U","NORAD_CAT_ID":51627,"ELEMENT_SET_NO":999,"REV_AT_EPOCH":17709,"BSTAR":-4.6736589e-5,"MEAN_MOTION_DOT":-5.0e-8,"MEAN_MOTION_DDOT":0},{"OBJECT_NAME":"ONEWEB-0425","OBJECT_ID":"2022-012G","EPOCH":"2025-09-12T13:09:16.798176","MEAN_MOTION":13.10369213,"ECCENTRICITY":0.00019963,"INCLINATION":87.8737,"RA_OF_ASC_NODE":91.6271,"ARG_OF_PERICENTER":82.5336,"MEAN_ANOMALY":277.6018,"EPHEMERIS_TYPE":0,"CLASSIFICATION_TYPE":"U","NORAD_CAT_ID":51628,"ELEMENT_SET_NO":999,"REV_AT_EPOCH":17296,"BSTAR":0.0010167181,"MEAN_MOTION_DOT":3.68e-6,"MEAN_MOTION_DDOT":0},{"OBJECT_NAME":"ONEWEB-0428","OBJECT_ID":"2022-012H","EPOCH":"2025-09-12T12:40:35.590944","MEAN_MOTION":13.10374456,"ECCENTRICITY":0.0001494,"INCLINATION":87.8739,"RA_OF_ASC_NODE":91.6527,"ARG_OF_PERICENTER":82.1552,"MEAN_ANOMALY":277.9745,"EPHEMERIS_TYPE":0,"CLASSIFICATION_TYPE":"U","NORAD_CAT_ID":51629,"ELEMENT_SET_NO":999,"REV_AT_EPOCH":17292,"BSTAR":0.0012878453,"MEAN_MOTION_DOT":4.62e-6,"MEAN_MOTION_DDOT":0},{"OBJECT_NAME":"ONEWEB-0431","OBJECT_ID":"2022-012J","EPOCH":"2025-09-12T11:57:22.453056","MEAN_MOTION":13.10375072,"ECCENTRICITY":0.00012328,"INCLINATION":87.8746,"RA_OF_ASC_NODE":91.6308,"ARG_OF_PERICENTER":106.6793,"MEAN_ANOMALY":253.447,"EPHEMERIS_TYPE":0,"CLASSIFICATION_TYPE":"U","NORAD_CAT_ID":51630,"ELEMENT_SET_NO":999,"REV_AT_EPOCH":17297,"BSTAR":-0.0019443936,"MEAN_MOTION_DOT":-6.66e-6,"MEAN_MOTION_DDOT":0},{"OBJECT_NAME":"ONEWEB-0434","OBJECT_ID":"2022-012K","EPOCH":"2025-09-12T13:14:03.964128","MEAN_MOTION":13.10369735,"ECCENTRICITY":0.00022957,"INCLINATION":87.8741,"RA_OF_ASC_NODE":91.6618,"ARG_OF_PERICENTER":79.9527,"MEAN_ANOMALY":280.1859,"EPHEMERIS_TYPE":0,"CLASSIFICATION_TYPE":"U","NORAD_CAT_ID":51631,"ELEMENT_SET_NO":999,"REV_AT_EPOCH":17296,"BSTAR":0.00053415985,"MEAN_MOTION_DOT":1.99e-6,"MEAN_MOTION_DDOT":0},{"OBJECT_NAME":"ONEWEB-0435","OBJECT_ID":"2022-012L","EPOCH":"2025-09-12T13:26:00.093120","MEAN_MOTION":13.10365033,"ECCENTRICITY":0.00018241,"INCLINATION":87.8716,"RA_OF_ASC_NODE":91.6532,"ARG_OF_PERICENTER":101.652,"MEAN_ANOMALY":258.4812,"EPHEMERIS_TYPE":0,"CLASSIFICATION_TYPE":"U","NORAD_CAT_ID":51632,"ELEMENT_SET_NO":999,"REV_AT_EPOCH":17295,"BSTAR":-0.0036714869,"MEAN_MOTION_DOT":-1.269e-5,"MEAN_MOTION_DDOT":0},{"OBJECT_NAME":"ONEWEB-0436","OBJECT_ID":"2022-012M","EPOCH":"2025-09-12T05:02:14.088192","MEAN_MOTION":13.17650214,"ECCENTRICITY":0.00014742,"INCLINATION":87.9036,"RA_OF_ASC_NODE":61.1296,"ARG_OF_PERICENTER":91.2584,"MEAN_ANOMALY":268.8717,"EPHEMERIS_TYPE":0,"CLASSIFICATION_TYPE":"U","NORAD_CAT_ID":51633,"ELEMENT_SET_NO":999,"REV_AT_EPOCH":17707,"BSTAR":-0.00016487633,"MEAN_MOTION_DOT":-5.1e-7,"MEAN_MOTION_DDOT":0},{"OBJECT_NAME":"ONEWEB-0438","OBJECT_ID":"2022-012N","EPOCH":"2025-09-11T13:12:41.614560","MEAN_MOTION":13.10369261,"ECCENTRICITY":0.00018412,"INCLINATION":87.8739,"RA_OF_ASC_NODE":91.8543,"ARG_OF_PERICENTER":84.3211,"MEAN_ANOMALY":275.8126,"EPHEMERIS_TYPE":0,"CLASSIFICATION_TYPE":"U","NORAD_CAT_ID":51634,"ELEMENT_SET_NO":999,"REV_AT_EPOCH":17285,"BSTAR":0.0012175653,"MEAN_MOTION_DOT":4.38e-6,"MEAN_MOTION_DDOT":0},{"OBJECT_NAME":"ONEWEB-0439","OBJECT_ID":"2022-012P","EPOCH":"2025-09-12T13:06:53.280864","MEAN_MOTION":13.10369228,"ECCENTRICITY":0.0001647,"INCLINATION":87.8737,"RA_OF_ASC_NODE":91.6437,"ARG_OF_PERICENTER":83.0881,"MEAN_ANOMALY":277.0434,"EPHEMERIS_TYPE":0,"CLASSIFICATION_TYPE":"U","NORAD_CAT_ID":51635,"ELEMENT_SET_NO":999,"REV_AT_EPOCH":17296,"BSTAR":0.0011035584,"MEAN_MOTION_DOT":3.98e-6,"MEAN_MOTION_DDOT":0},{"OBJECT_NAME":"ONEWEB-0442","OBJECT_ID":"2022-012Q","EPOCH":"2025-09-12T04:51:19.861344","MEAN_MOTION":13.17648552,"ECCENTRICITY":0.00023663,"INCLINATION":87.9036,"RA_OF_ASC_NODE":61.1849,"ARG_OF_PERICENTER":94.8459,"MEAN_ANOMALY":265.2942,"EPHEMERIS_TYPE":0,"CLASSIFICATION_TYPE":"U","NORAD_CAT_ID":51636,"ELEMENT_SET_NO":999,"REV_AT_EPOCH":17706,"BSTAR":-8.7064121e-5,"MEAN_MOTION_DOT":-2.1e-7,"MEAN_MOTION_DDOT":0},{"OBJECT_NAME":"ONEWEB-0443","OBJECT_ID":"2022-012R","EPOCH":"2025-09-11T22:01:52.220928","MEAN_MOTION":13.17649705,"ECCENTRICITY":0.00018935,"INCLINATION":87.9029,"RA_OF_ASC_NODE":61.2493,"ARG_OF_PERICENTER":82.0633,"MEAN_ANOMALY":278.0714,"EPHEMERIS_TYPE":0,"CLASSIFICATION_TYPE":"U","NORAD_CAT_ID":51637,"ELEMENT_SET_NO":999,"REV_AT_EPOCH":17707,"BSTAR":0.00021368562,"MEAN_MOTION_DOT":9.6e-7,"MEAN_MOTION_DDOT":0},{"OBJECT_NAME":"ONEWEB-0444","OBJECT_ID":"2022-012S","EPOCH":"2025-09-11T14:53:06.156960","MEAN_MOTION":13.10372047,"ECCENTRICITY":0.00016094,"INCLINATION":87.8738,"RA_OF_ASC_NODE":91.8288,"ARG_OF_PERICENTER":80.9853,"MEAN_ANOMALY":279.1456,"EPHEMERIS_TYPE":0,"CLASSIFICATION_TYPE":"U","NORAD_CAT_ID":51638,"ELEMENT_SET_NO":999,"REV_AT_EPOCH":17285,"BSTAR":0.0014996604,"MEAN_MOTION_DOT":5.36e-6,"MEAN_MOTION_DDOT":0},{"OBJECT_NAME":"ONEWEB-0445","OBJECT_ID":"2022-012T","EPOCH":"2025-09-12T13:23:37.082976","MEAN_MOTION":13.10387725,"ECCENTRICITY":0.00016593,"INCLINATION":87.8744,"RA_OF_ASC_NODE":91.5951,"ARG_OF_PERICENTER":86.4476,"MEAN_ANOMALY":273.6841,"EPHEMERIS_TYPE":0,"CLASSIFICATION_TYPE":"U","NORAD_CAT_ID":51639,"ELEMENT_SET_NO":999,"REV_AT_EPOCH":17298,"BSTAR":-0.010602283,"MEAN_MOTION_DOT":-3.688e-5,"MEAN_MOTION_DDOT":0},{"OBJECT_NAME":"ONEWEB-0446","OBJECT_ID":"2022-012U","EPOCH":"2025-09-11T22:10:31.376928","MEAN_MOTION":13.1037171,"ECCENTRICITY":0.00016952,"INCLINATION":87.874,"RA_OF_ASC_NODE":91.7837,"ARG_OF_PERICENTER":93.7012,"MEAN_ANOMALY":266.4309,"EPHEMERIS_TYPE":0,"CLASSIFICATION_TYPE":"U","NORAD_CAT_ID":51640,"ELEMENT_SET_NO":999,"REV_AT_EPOCH":17288,"BSTAR":0.0018776798,"MEAN_MOTION_DOT":6.68e-6,"MEAN_MOTION_DDOT":0},{"OBJECT_NAME":"ONEWEB-0448","OBJECT_ID":"2022-012V","EPOCH":"2025-09-12T12:57:19.857888","MEAN_MOTION":13.10372979,"ECCENTRICITY":0.00016356,"INCLINATION":87.874,"RA_OF_ASC_NODE":91.6603,"ARG_OF_PERICENTER":82.5755,"MEAN_ANOMALY":277.5558,"EPHEMERIS_TYPE":0,"CLASSIFICATION_TYPE":"U","NORAD_CAT_ID":51641,"ELEMENT_SET_NO":999,"REV_AT_EPOCH":17293,"BSTAR":0.0017306078,"MEAN_MOTION_DOT":6.17e-6,"MEAN_MOTION_DDOT":0},{"OBJECT_NAME":"ONEWEB-0449","OBJECT_ID":"2022-012W","EPOCH":"2025-09-12T05:44:41.447040","MEAN_MOTION":13.10371432,"ECCENTRICITY":0.00021177,"INCLINATION":87.8734,"RA_OF_ASC_NODE":91.6913,"ARG_OF_PERICENTER":80.7249,"MEAN_ANOMALY":279.4118,"EPHEMERIS_TYPE":0,"CLASSIFICATION_TYPE":"U","NORAD_CAT_ID":51642,"ELEMENT_SET_NO":999,"REV_AT_EPOCH":17290,"BSTAR":0.0014044752,"MEAN_MOTION_DOT":5.03e-6,"MEAN_MOTION_DDOT":0}]
